BEIDOU-2 IGSO-1 (C06)   
1 36828U 10036A   23364.89771670 -.00000072  00000+0  00000+0 0  9998
2 36828  54.2427 171.1002 0038355 191.2796 168.5320  1.00276523 49200
BEIDOU-2 G4 (C04)       
1 37210U 10057A   23365.04352476 -.00000100  00000+0  00000+0 0  9996
2 37210   1.4446  65.4517 0007987 190.0506  19.3900  1.00273388 48268
BEIDOU-2 IGSO-2 (C07)   
1 37256U 10068A   23364.69701698 -.00000180  00000+0  00000+0 0  9990
2 37256  49.1940 282.8869 0028613 212.3147 318.3987  1.00246492 47777
BEIDOU-2 IGSO-3 (C08)   
1 37384U 11013A   23363.56620910 -.00000171  00000+0  00000+0 0  9995
2 37384  61.1061  48.7627 0029444 182.9488 174.1736  1.00301752 46636
BEIDOU-2 IGSO-4 (C09)   
1 37763U 11038A   23364.34665823  .00000025  00000+0  00000+0 0  9999
2 37763  54.5510 173.6838 0116192 226.4551 275.7044  1.00294386 45628
BEIDOU-2 IGSO-5 (C10)   
1 37948U 11073A   23364.74431435 -.00000139  00000+0  00000+0 0  9994
2 37948  49.3217 282.5607 0094516 221.1675 316.7300  1.00289926 44115
BEIDOU-2 G5 (C05)       
1 38091U 12008A   23364.91766472  .00000069  00000+0  00000+0 0  9995
2 38091   1.9926  70.1281 0009281 213.0610 204.9325  1.00270406 43352
BEIDOU-2 M3 (C11)       
1 38250U 12018A   23364.25471538 -.00000091  00000+0  00000+0 0  9992
2 38250  56.4468 334.9922 0024966 264.9593  94.7479  1.86231366 79181
BEIDOU-2 M4 (C12)       
1 38251U 12018B   23364.18565672 -.00000092  00000+0  00000+0 0  9999
2 38251  56.3561 334.2789 0015945 269.1914  90.6177  1.86232121 79180
BEIDOU-2 M6 (C14)       
1 38775U 12050B   23363.89533761 -.00000032  00000+0  00000+0 0  9991
2 38775  55.7795  92.8620 0011629 329.7340  30.2158  1.86231125 76544
BEIDOU-2 G6 (C02)       
1 38953U 12059A   23364.85110566 -.00000164  00000+0  00000+0 0  9995
2 38953   2.1278  81.5427 0008933 286.7836 121.1024  1.00271388 40892
BEIDOU-3S IGSO-1S (C31) 
1 40549U 15019A   23365.23688222 -.00000176  00000+0  00000+0 0  9993
2 40549  50.8876 306.1848 0035671 195.2107 138.1144  1.00286941 32058
BEIDOU-3S M2S (C58)     
1 40748U 15037A   23364.38734231 -.00000091  00000+0  00000+0 0  9997
2 40748  55.5930 332.7992 0012217 261.1610  98.6932  1.86233226 57368
BEIDOU-3S M1S (C57)     
1 40749U 15037B   23364.65758080 -.00000090  00000+0  00000+0 0  9995
2 40749  55.5959 332.7766 0006853 317.4952  42.4449  1.86233085 57365
BEIDOU-3S IGSO-2S (C56) 
1 40938U 15053A   23364.76230281 -.00000107  00000+0  00000+0 0  9992
2 40938  50.6238 269.3835 0046064 192.5756   5.3837  1.00256736 30336
BEIDOU-2 IGSO-6 (C13)   
1 41434U 16021A   23365.48241332 -.00000143  00000+0  00000+0 0  9999
2 41434  58.9222  47.0600 0049916 224.5091  96.0528  1.00260493 28460
BEIDOU-2 G7 (C03)       
1 41586U 16037A   23365.15281632 -.00000341  00000+0  00000+0 0  9995
2 41586   1.5038  66.7667 0009512 313.7585 244.3584  1.00269243 27769
BEIDOU-3 M1 (C19)       
1 43001U 17069A   23364.73546276 -.00000027  00000+0  00000+0 0  9997
2 43001  55.9311  92.9081 0009554 290.6319  69.2863  1.86231458 41856
BEIDOU-3 M2 (C20)       
1 43002U 17069B   23364.67238934 -.00000028  00000+0  00000+0 0  9991
2 43002  55.9305  92.9462 0006867 313.3908  46.5723  1.86231146 41840
BEIDOU-3 M7 (C27)       
1 43107U 18003A   23364.42258306 -.00000093  00000+0  00000+0 0  9996
2 43107  55.0500 333.4632 0003238  45.3564 314.6630  1.86232491 40596
BEIDOU-3 M8 (C28)       
1 43108U 18003B   23364.36164137 -.00000093  00000+0  00000+0 0  9998
2 43108  55.0430 333.4517 0004778 270.5418  89.3963  1.86230971 40609
BEIDOU-3 M4 (C22)       
1 43207U 18018A   23364.26654492 -.00000029  00000+0  00000+0 0  9990
2 43207  55.8898  93.0186 0003906 345.0113  14.9955  1.86231411 39982
BEIDOU-3 M3 (C21)       
1 43208U 18018B   23364.33316864 -.00000029  00000+0  00000+0 0  9997
2 43208  55.8892  93.0208 0006990 300.8598  59.0901  1.86231558 39987
BEIDOU-3 M9 (C29)       
1 43245U 18029A   23364.55542593 -.00000091  00000+0  00000+0 0  9993
2 43245  54.9395 331.1822 0001965 288.8515  71.1203  1.86232784 39145
BEIDOU-3 M10 (C30)      
1 43246U 18029B   23364.48529493 -.00000092  00000+0  00000+0 0  9991
2 43246  54.9369 331.2130 0004575 345.8601  14.1199  1.86232857 39120
BEIDOU-2 IGSO-7 (C16)   
1 43539U 18057A   23364.89771670 -.00000069  00000+0  00000+0 0  9992
2 43539  55.1265 170.8260 0064490 229.0350 132.2185  1.00247854 20126
BEIDOU-3 M5 (C23)       
1 43581U 18062A   23365.24303214  .00000053  00000+0  00000+0 0  9992
2 43581  54.1551 212.8914 0001979 345.0830  14.9721  1.86228906 36892
BEIDOU-3 M6 (C24)       
1 43582U 18062B   23365.10965624  .00000052  00000+0  00000+0 0  9996
2 43582  54.1547 212.8855 0007230  36.9949 323.1164  1.86229911 36898
BEIDOU-3 M12 (C26)      
1 43602U 18067A   23363.97097689  .00000051  00000+0  00000+0 0  9993
2 43602  54.2436 211.5902 0008260  29.6405 330.4705  1.86231653 36357
BEIDOU-3 M11 (C25)      
1 43603U 18067B   23365.17870898  .00000054  00000+0  00000+0 0  9992
2 43603  54.2407 211.5147 0004969  26.5220 333.5625  1.86231614 36408
BEIDOU-3 M13 (C32)      
1 43622U 18072A   23364.60124004 -.00000028  00000+0  00000+0 0  9999
2 43622  55.8599  92.5440 0006395 282.8297  77.1195  1.86231194 35907
BEIDOU-3 M14 (C33)      
1 43623U 18072B   23363.92973670 -.00000032  00000+0  00000+0 0  9990
2 43623  55.8613  92.5593 0003581 306.5737  53.4110  1.86231205 35885
BEIDOU-3 M16 (C35)      
1 43647U 18078A   23365.16715325 -.00000089  00000+0  00000+0 0  9993
2 43647  54.8353 331.2739 0007505   1.4807 358.5161  1.86232376 35420
BEIDOU-3 M15 (C34)      
1 43648U 18078B   23364.22234831 -.00000093  00000+0  00000+0 0  9993
2 43648  54.8318 331.3099 0004389   1.4627 358.5307  1.86232242 35412
BEIDOU-3 G1 (C59)       
1 43683U 18085A   23365.49623120 -.00000265  00000+0  00000+0 0  9994
2 43683   1.7863 117.2366 0001068   7.1177 294.0176  1.00270190 19048
BEIDOU-3 M17 (C36)      
1 43706U 18093A   23364.37052719  .00000050  00000+0  00000+0 0  9996
2 43706  54.2379 212.8471 0006542 295.7178  64.2790  1.86228487 34789
BEIDOU-3 M18 (C37)      
1 43707U 18093B   23364.23720946  .00000050  00000+0  00000+0 0  9996
2 43707  54.2387 212.8433 0006366 335.1466  24.8878  1.86230008 34770
BEIDOU-3 IGSO-1 (C38)   
1 44204U 19023A   23359.85561811 -.00000224  00000+0  00000+0 0  9993
2 44204  57.3835  47.0551 0023834 204.1671 266.3544  1.00248909 17270
BEIDOU-2 G8 (C01)       
1 44231U 19027A   23364.86318845 -.00000236  00000+0  00000+0 0  9994
2 44231   1.5312  72.3111 0004655 175.1856 306.8165  1.00274356 17067
BEIDOU-3 IGSO-2 (C39)   
1 44337U 19035A   23365.23854569 -.00000080  00000+0  00000+0 0  9997
2 44337  55.1644 166.7517 0031008 199.9706 296.0674  1.00294065 16686
BEIDOU-3 M24 (C46)      
1 44542U 19061A   23364.30797205  .00000050  00000+0  00000+0 0  9990
2 44542  54.4652 213.1020 0008812  10.5857 349.4981  1.86231525 29036
BEIDOU-3 M23 (C45)      
1 44543U 19061B   23365.26304341  .00000053  00000+0  00000+0 0  9995
2 44543  54.4635 213.0388 0005584   9.0369 183.4096  1.86231989 29046
BEIDOU-3 IGSO-3 (C40)   
1 44709U 19073A   23364.53627047 -.00000187  00000+0  00000+0 0  9991
2 44709  56.3428 290.5185 0035138 183.0989 293.9490  1.00301332 15423
BEIDOU-3 M22 (C44)      
1 44793U 19078A   23365.22730088 -.00000090  00000+0  00000+0 0  9999
2 44793  54.6836 331.2245 0006337   6.2822 353.7206  1.86232151 27914
BEIDOU-3 M21 (C43)      
1 44794U 19078B   23364.82060811 -.00000091  00000+0  00000+0 0  9996
2 44794  54.6575 331.2183 0004492 354.0530   5.9355  1.86232659 27909
BEIDOU-3 M19 (C41)      
1 44864U 19090A   23364.53965220 -.00000029  00000+0  00000+0 0  9995
2 44864  55.7943  92.7263 0017648 273.9434  91.1229  1.86231746 27470
BEIDOU-3 M20 (C42)      
1 44865U 19090B   23364.41412267 -.00000029  00000+0  00000+0 0  9991
2 44865  55.7960  92.7635 0015126 286.6065  84.0676  1.86231716 27466
BEIDOU-3 G2 (C60)       
1 45344U 20017A   23364.87271407 -.00000130  00000+0  00000+0 0  9997
2 45344   2.1346  22.2378 0003481 248.5027 222.5002  1.00271675 14249
BEIDOU-3 G3 (C61)       
1 45807U 20040A   23364.89771670 -.00000342  00000+0  00000+0 0  9991
2 45807   0.5845  11.2415 0009887 302.6684 218.8358  1.00267251 13051
BEIDOU-3 G4             
1 56564U 23066A   23364.86623425 -.00000097  00000+0  00000+0 0  9992
2 56564   2.5473 288.3631 0003339 238.0002  44.5934  1.00272770  2381
BEIDOU-3 M25            
1 58654U 23207A   23364.67160701 -.00000030  00000+0  00000+0 0  9990
2 58654  54.9738  92.8391 0117872 178.5120 181.5422  1.82958031    97
BEIDOU-3 M26            
1 58655U 23207B   23364.67112817 -.00000030  00000+0  00000+0 0  9996
2 58655  54.9765  92.8391 0118795 178.2659 181.7944  1.82977591    89
